NORAD_CAT_ID,OBJECT_NAME,OBJECT_TYPE,EPOCH,MEAN_MOTION,ECCENTRICITY,INCLINATION,RA_OF_ASC_NODE,ARG_OF_PERICENTER,MEAN_ANOMALY,BSTAR,MEAN_MOTION_DOT,MEAN_MOTION_DDOT,TLE_LINE0,TLE_LINE1,TLE_LINE2,SEMIMAJOR_AXIS,PERIOD,APOGEE,PERIGEE,DECAYED
56799.0,STARLINK-5953,PAYLOAD,2024-04-13 14:05:11,14.983286,0.000289,69.9988,296.9328,263.164,96.919,1.6767e-06,-7.3e-07,0.0,0 STARLINK-5953,1 56799U 23078AJ  24104.58693701 -.00000073  00000-0  16767-5 0  9999,2 56799  69.9988 296.9328 0002890 263.1640  96.9190 14.98328600 48565,6950.197,96.107,574.071,570.054,0.0
56799.0,STARLINK-5953,PAYLOAD,2024-04-13 20:29:43,14.98328939,0.0002889,69.9989,296.2593,262.9948,97.0883,7.1252e-06,-8e-08,0.0,0 STARLINK-5953,1 56799U 23078AJ  24104.85397683 -.00000008  00000-0  71252-5 0  9997,2 56799  69.9989 296.2593 0002889 262.9948  97.0883 14.98328939 48600,6950.196,96.107,574.069,570.053,0.0
56799.0,STARLINK-5953,PAYLOAD,2024-04-13 23:41:59,14.98329251,0.0002894,69.9988,295.9225,262.9406,97.1424,1.0096e-05,2.7e-07,0.0,0 STARLINK-5953,1 56799U 23078AJ  24104.98749662  .00000027  00000-0  10096-4 0  9997,2 56799  69.9988 295.9225 0002894 262.9406  97.1424 14.98329251 48882,6950.195,96.107,574.072,570.049,0.0
56799.0,STARLINK-5953,PAYLOAD,2024-04-14 20:31:48,14.98283001,0.0003083,69.9989,293.7346,262.2043,97.8766,-0.00047347,-5.731e-05,0.0,0 STARLINK-5953,1 56799U 23078AJ  24105.85541984 -.00005731  00000-0 -47347-3 0  9998,2 56799  69.9989 293.7346 0003083 262.2043  97.8766 14.98283001 49018,6950.338,96.11,574.346,570.06,0.0
56799.0,STARLINK-5953,PAYLOAD,2024-04-14 22:07:56,14.98278381,0.0003158,69.9987,293.5653,267.9268,92.153,-0.00051848,-6.266e-05,0.0,0 STARLINK-5953,1 56799U 23078AJ  24105.92218584 -.00006266  00000-0 -51848-3 0  9998,2 56799  69.9987 293.5653 0003158 267.9268  92.1530 14.98278381 48762,6950.353,96.11,574.412,570.023,0.0
56799.0,STARLINK-5953,PAYLOAD,2024-04-15 12:33:06,14.98317829,0.0003283,69.9989,292.0506,277.8433,82.2353,-5.4368e-05,-7.41e-06,0.0,0 STARLINK-5953,1 56799U 23078AJ  24106.52299686 -.00000741  00000-0 -54368-4 0  9990,2 56799  69.9989 292.0506 0003283 277.8433  82.2353 14.98317829 49112,6950.231,96.108,574.377,569.814,0.0
56799.0,STARLINK-5953,PAYLOAD,2024-04-15 14:09:14,14.98320673,0.0002036,70.0026,291.8855,255.719,104.3743,5.7197e-05,5.9e-06,0.0,0 STARLINK-5953,1 56799U 23078AJ  24106.58975221  .00000590  00000-0  57197-4 0  9995,2 56799  70.0026 291.8855 0002036 255.7190 104.3743 14.98320673 48862,6950.222,96.108,573.502,570.672,0.0
56799.0,STARLINK-5953,PAYLOAD,2024-04-15 20:33:46,14.9832438,0.000194,70.002,291.2121,248.9309,111.1643,9.934e-05,1.092e-05,0.0,0 STARLINK-5953,1 56799U 23078AJ  24106.85679010  .00001092  00000-0  99340-4 0  9996,2 56799  70.0020 291.2121 0001940 248.9309 111.1643 14.98324380 49163,6950.21,96.107,573.424,570.727,0.0
56799.0,STARLINK-5953,PAYLOAD,2024-04-15 22:09:54,14.98335134,0.0003145,69.9988,291.0407,274.1885,85.8915,0.00013307,1.495e-05,0.0,0 STARLINK-5953,1 56799U 23078AJ  24106.92354220  .00001495  00000-0  13307-3 0  9992,2 56799  69.9988 291.0407 0003145 274.1885  85.8915 14.98335134 49176,6950.177,96.107,574.228,569.856,0.0
56799.0,STARLINK-5953,PAYLOAD,2024-04-16 12:35:05,14.98348124,0.0003285,69.998,289.5243,275.8046,84.2738,0.00020001,2.295e-05,0.0,0 STARLINK-5953,1 56799U 23078AJ  24107.52436971  .00002295  00000-0  20001-3 0  9991,2 56799  69.9980 289.5243 0003285 275.8046  84.2738 14.98348124 49269,6950.137,96.106,574.285,569.719,0.0
56799.0,STARLINK-5953,PAYLOAD,2024-04-16 14:11:13,14.98344716,0.0003788,69.9983,289.3559,284.3179,75.7559,0.0002829,3.285e-05,0.0,0 STARLINK-5953,1 56799U 23078AJ  24107.59112884  .00003285  00000-0  28290-3 0  9990,2 56799  69.9983 289.3559 0003788 284.3179  75.7559 14.98344716 49012,6950.147,96.106,574.645,569.38,0.0
56799.0,STARLINK-5953,PAYLOAD,2024-04-16 22:11:52,14.98362439,0.0003161,69.9983,288.5155,269.5262,90.5535,0.00033504,3.91e-05,0.0,0 STARLINK-5953,1 56799U 23078AJ  24107.92491142  .00003910  00000-0  33504-3 0  9993,2 56799  69.9983 288.5155 0003161 269.5262  90.5535 14.98362439 49064,6950.093,96.105,574.155,569.761,0.0
56799.0,STARLINK-5953,PAYLOAD,2024-04-17 12:37:07,14.9833283,0.0004058,69.9979,286.999,281.1606,78.9097,-0.00011799,-1.501e-05,0.0,0 STARLINK-5953,1 56799U 23078AJ  24108.52578266 -.00001501  00000-0 -11799-3 0  9991,2 56799  69.9979 286.9990 0004058 281.1606  78.9097 14.98332830 49410,6950.184,96.107,574.87,569.229,0.0
56799.0,STARLINK-5953,PAYLOAD,2024-04-17 14:13:15,14.98333405,0.0003897,69.9976,286.8306,282.8537,77.2186,-0.00010038,-1.291e-05,0.0,0 STARLINK-5953,1 56799U 23078AJ  24108.59254196 -.00001291  00000-0 -10038-3 0  9992,2 56799  69.9976 286.8306 0003897 282.8537  77.2186 14.98333405 49160,6950.182,96.107,574.756,569.339,0.0
56799.0,STARLINK-5953,PAYLOAD,2024-04-17 20:37:47,14.98332071,0.0003594,69.9981,286.1575,279.9857,80.0896,-0.00012498,-1.584e-05,0.0,0 STARLINK-5953,1 56799U 23078AJ  24108.85958271 -.00001584  00000-0 -12498-3 0  9993,2 56799  69.9981 286.1575 0003594 279.9857  80.0896 14.98332071 49206,6950.186,96.107,574.549,569.554,0.0
56799.0,STARLINK-5953,PAYLOAD,2024-04-18 12:39:08,14.98338302,0.0003667,69.9978,284.4736,277.8803,82.1939,-0.00020688,-2.561e-05,0.0,0 STARLINK-5953,1 56799U 23078AJ  24109.52717774 -.00002561  00000-0 -20688-3 0  9995,2 56799  69.9978 284.4736 0003667 277.8803  82.1939 14.98338302 49564,6950.167,96.106,574.581,569.484,0.0
56799.0,STARLINK-5953,PAYLOAD,2024-04-18 20:39:47,14.98344351,0.0003444,69.9984,283.6322,275.7446,84.332,-0.00011528,-1.469e-05,0.0,0 STARLINK-5953,1 56799U 23078AJ  24109.86096944 -.00001469  00000-0 -11528-3 0  9990,2 56799  69.9984 283.6322 0003444 275.7446  84.3320 14.98344351 49611,6950.149,96.106,574.407,569.62,0.0
56799.0,STARLINK-5953,PAYLOAD,2024-04-19 12:41:08,14.98323308,0.000333,69.9989,281.9493,271.8576,88.2202,0.00012948,1.452e-05,0.0,0 STARLINK-5953,1 56799U 23078AJ  24110.52857505  .00001452  00000-0  12948-3 0  9990,2 56799  69.9989 281.9493 0003330 271.8576  88.2202 14.98323308 49713,6950.214,96.107,574.393,569.764,0.0
56799.0,STARLINK-5953,PAYLOAD,2024-04-19 14:17:16,14.98323422,0.0003335,69.9989,281.781,271.8482,88.2294,0.00012858,1.441e-05,0.0,0 STARLINK-5953,1 56799U 23078AJ  24110.59533540  .00001441  00000-0  12858-3 0  9995,2 56799  69.9989 281.7810 0003335 271.8482  88.2294 14.98323422 49465,6950.213,96.107,574.396,569.76,0.0
56799.0,STARLINK-5953,PAYLOAD,2024-04-19 20:41:48,14.98331715,0.0003165,69.9989,281.1076,266.3567,93.7231,0.00022618,2.607e-05,0.0,0 STARLINK-5953,1 56799U 23078AJ  24110.86236850  .00002607  00000-0  22618-3 0  9999,2 56799  69.9989 281.1076 0003165 266.3567  93.7231 14.98331715 49766,6950.188,96.107,574.252,569.853,0.0
56799.0,STARLINK-5953,PAYLOAD,2024-04-20 14:19:17,14.98331813,0.0002856,70.0003,279.2579,248.5356,111.5499,0.00011127,1.235e-05,0.0,0 STARLINK-5953,1 56799U 23078AJ  24111.59673104  .00001235  00000-0  11127-3 0  9996,2 56799  70.0003 279.2579 0002856 248.5356 111.5499 14.98331813 49614,6950.187,96.107,574.037,570.067,0.0
56799.0,STARLINK-5953,PAYLOAD,2024-04-20 20:43:49,14.98332918,0.0002848,70.0005,278.585,247.0011,113.0848,0.00011758,1.31e-05,0.0,0 STARLINK-5953,1 56799U 23078AJ  24111.86376997  .00001310  00000-0  11758-3 0  9990,2 56799  70.0005 278.5850 0002848 247.0011 113.0848 14.98332918 49918,6950.184,96.107,574.028,570.069,0.0
56799.0,STARLINK-5953,PAYLOAD,2024-04-21 14:21:18,14.98330059,0.0002817,70.0007,276.7342,238.7534,121.3349,2.0921e-05,1.57e-06,0.0,0 STARLINK-5953,1 56799U 23078AJ  24112.59813373  .00000157  00000-0  20921-4 0  9996,2 56799  70.0007 276.7342 0002817 238.7534 121.3349 14.98330059 49764,6950.193,96.107,574.016,570.1,0.0
56799.0,STARLINK-5953,PAYLOAD,2024-04-21 20:45:51,14.98328663,0.0002805,70.0006,276.0606,243.4244,116.6628,-4.7909e-06,-1.5e-06,0.0,0 STARLINK-5953,1 56799U 23078AJ  24112.86517528 -.00000150  00000-0 -47909-5 0  9990,2 56799  70.0006 276.0606 0002805 243.4244 116.6628 14.98328663 50067,6950.197,96.107,574.012,570.112,0.0
56799.0,STARLINK-5953,PAYLOAD,2024-04-22 11:11:03,14.98330819,0.0002793,70.0006,274.5449,248.6053,111.4808,3.1028e-05,2.77e-06,0.0,0 STARLINK-5953,1 56799U 23078AJ  24113.46601324  .00000277  00000-0  31028-4 0  9997,2 56799  70.0006 274.5449 0002793 248.6053 111.4808 14.98330819 49894,6950.19,96.107,573.997,570.114,0.0
56799.0,STARLINK-5953,PAYLOAD,2024-04-22 20:47:51,14.98331285,0.0002777,70.0006,273.5349,250.1823,109.9037,2.9776e-05,2.62e-06,0.0,0 STARLINK-5953,1 56799U 23078AJ  24113.86657262  .00000262  00000-0  29776-4 0  9994,2 56799  70.0006 273.5349 0002777 250.1823 109.9037 14.98331285 50219,6950.189,96.107,573.984,570.124,0.0
56799.0,STARLINK-5953,PAYLOAD,2024-04-23 14:25:20,14.98329357,0.0002775,70.0005,271.6822,257.6739,102.4109,9.5548e-05,1.047e-05,0.0,0 STARLINK-5953,1 56799U 23078AJ  24114.60093260  .00001047  00000-0  95548-4 0  9991,2 56799  70.0005 271.6822 0002775 257.6739 102.4109 14.98329357 50067,6950.195,96.107,573.989,570.131,0.0
56799.0,STARLINK-5953,PAYLOAD,2024-04-23 20:49:52,14.98333292,0.000274,70.0006,271.0089,258.0241,102.061,0.00013578,1.528e-05,0.0,0 STARLINK-5953,1 56799U 23078AJ  24114.86796935  .00001528  00000-0  13578-3 0  9994,2 56799  70.0006 271.0089 0002740 258.0241 102.0610 14.98333292 50361,6950.183,96.107,573.952,570.143,0.0
56799.0,STARLINK-5953,PAYLOAD,2024-04-24 14:27:20,14.98337994,0.0002745,70.0007,269.1571,258.8968,101.1882,0.00012924,1.45e-05,0.0,0 STARLINK-5953,1 56799U 23078AJ  24115.60232462  .00001450  00000-0  12924-3 0  9995,2 56799  70.0007 269.1571 0002745 258.8968 101.1882 14.98337994 50213,6950.168,96.106,573.941,570.125,0.0
56799.0,STARLINK-5953,PAYLOAD,2024-04-24 20:51:52,14.98342526,0.0002697,70.0008,268.4837,255.4711,104.6149,0.00017593,2.007e-05,0.0,0 STARLINK-5953,1 56799U 23078AJ  24115.86935937  .00002007  00000-0  17593-3 0  9996,2 56799  70.0008 268.4837 0002697 255.4711 104.6149 14.98342526 50510,6950.154,96.106,573.894,570.145,0.0
